CCSDS_OMM_VERS = 2.0
CREATION_DATE  = 
ORIGINATOR     = 

OBJECT_NAME    = SL-16 R/B
OBJECT_ID      = 1993-016B
CENTER_NAME    = EARTH
REF_FRAME      = TEME
TIME_SYSTEM    = UTC
MEAN_ELEMENT_THEORY = SGP/SGP4

EPOCH          = 2025-12-24T18:59:11.427072
MEAN_MOTION    = 14.15292512
ECCENTRICITY   = .0008048
INCLINATION    = 71.0083
RA_OF_ASC_NODE = 12.4919
ARG_OF_PERICENTER = 73.5899
MEAN_ANOMALY   = 286.6108

EPHEMERIS_TYPE = 0
CLASSIFICATION_TYPE = U
NORAD_CAT_ID   = 22566
ELEMENT_SET_NO = 999
REV_AT_EPOCH   = 69157
BSTAR          = .17926E-3
MEAN_MOTION_DOT = .302E-5
MEAN_MOTION_DDOT = 0

CCSDS_OMM_VERS = 2.0
CREATION_DATE  = 
ORIGINATOR     = 

OBJECT_NAME    = COSMOS 2242
OBJECT_ID      = 1993-024A
CENTER_NAME    = EARTH
REF_FRAME      = TEME
TIME_SYSTEM    = UTC
MEAN_ELEMENT_THEORY = SGP/SGP4

EPOCH          = 2025-12-24T16:11:02.221728
MEAN_MOTION    = 14.96153309
ECCENTRICITY   = .0015843
INCLINATION    = 82.5189
RA_OF_ASC_NODE = 338.4366
ARG_OF_PERICENTER = 191.6888
MEAN_ANOMALY   = 168.3969

EPHEMERIS_TYPE = 0
CLASSIFICATION_TYPE = U
NORAD_CAT_ID   = 22626
ELEMENT_SET_NO = 999
REV_AT_EPOCH   = 76917
BSTAR          = .17964E-3
MEAN_MOTION_DOT = .2052E-4
MEAN_MOTION_DDOT = 0

CCSDS_OMM_VERS = 2.0
CREATION_DATE  = 
ORIGINATOR     = 

OBJECT_NAME    = SL-16 R/B
OBJECT_ID      = 1993-059B
CENTER_NAME    = EARTH
REF_FRAME      = TEME
TIME_SYSTEM    = UTC
MEAN_ELEMENT_THEORY = SGP/SGP4

EPOCH          = 2025-12-24T19:14:22.464096
MEAN_MOTION    = 14.17215642
ECCENTRICITY   = .001858
INCLINATION    = 70.9882
RA_OF_ASC_NODE = 169.0505
ARG_OF_PERICENTER = 318.6340
MEAN_ANOMALY   = 41.3375

EPHEMERIS_TYPE = 0
CLASSIFICATION_TYPE = U
NORAD_CAT_ID   = 22803
ELEMENT_SET_NO = 999
REV_AT_EPOCH   = 66892
BSTAR          = .17384E-3
MEAN_MOTION_DOT = .303E-5
MEAN_MOTION_DDOT = 0

CCSDS_OMM_VERS = 2.0
CREATION_DATE  = 
ORIGINATOR     = 

OBJECT_NAME    = ARIANE 40 R/B
OBJECT_ID      = 1993-061H
CENTER_NAME    = EARTH
REF_FRAME      = TEME
TIME_SYSTEM    = UTC
MEAN_ELEMENT_THEORY = SGP/SGP4

EPOCH          = 2025-12-24T16:47:10.281120
MEAN_MOTION    = 14.32808960
ECCENTRICITY   = .0011499
INCLINATION    = 98.5060
RA_OF_ASC_NODE = 64.0110
ARG_OF_PERICENTER = 142.1689
MEAN_ANOMALY   = 218.0305

EPHEMERIS_TYPE = 0
CLASSIFICATION_TYPE = U
NORAD_CAT_ID   = 22830
ELEMENT_SET_NO = 999
REV_AT_EPOCH   = 68336
BSTAR          = .10205E-3
MEAN_MOTION_DOT = .235E-5
MEAN_MOTION_DDOT = 0

CCSDS_OMM_VERS = 2.0
CREATION_DATE  = 
ORIGINATOR     = 

OBJECT_NAME    = COSMOS 2278
OBJECT_ID      = 1994-023A
CENTER_NAME    = EARTH
REF_FRAME      = TEME
TIME_SYSTEM    = UTC
MEAN_ELEMENT_THEORY = SGP/SGP4

EPOCH          = 2025-12-24T15:07:03.595872
MEAN_MOTION    = 14.14348318
ECCENTRICITY   = .0007813
INCLINATION    = 71.0534
RA_OF_ASC_NODE = 332.1338
ARG_OF_PERICENTER = 158.2800
MEAN_ANOMALY   = 201.8655

EPHEMERIS_TYPE = 0
CLASSIFICATION_TYPE = U
NORAD_CAT_ID   = 23087
ELEMENT_SET_NO = 999
REV_AT_EPOCH   = 63419
BSTAR          = .38133E-4
MEAN_MOTION_DOT = .26E-6
MEAN_MOTION_DDOT = 0

CCSDS_OMM_VERS = 2.0
CREATION_DATE  = 
ORIGINATOR     = 

OBJECT_NAME    = SL-16 R/B
OBJECT_ID      = 1994-023B
CENTER_NAME    = EARTH
REF_FRAME      = TEME
TIME_SYSTEM    = UTC
MEAN_ELEMENT_THEORY = SGP/SGP4

EPOCH          = 2025-12-24T20:26:44.482272
MEAN_MOTION    = 14.14999752
ECCENTRICITY   = .0002068
INCLINATION    = 70.9978
RA_OF_ASC_NODE = 228.0505
ARG_OF_PERICENTER = 3.4631
MEAN_ANOMALY   = 356.6506

EPHEMERIS_TYPE = 0
CLASSIFICATION_TYPE = U
NORAD_CAT_ID   = 23088
ELEMENT_SET_NO = 999
REV_AT_EPOCH   = 63550
BSTAR          = -.10297E-3
MEAN_MOTION_DOT = -.247E-5
MEAN_MOTION_DDOT = 0

CCSDS_OMM_VERS = 2.0
CREATION_DATE  = 
ORIGINATOR     = 

OBJECT_NAME    = SL-16 R/B
OBJECT_ID      = 1994-074B
CENTER_NAME    = EARTH
REF_FRAME      = TEME
TIME_SYSTEM    = UTC
MEAN_ELEMENT_THEORY = SGP/SGP4

EPOCH          = 2025-12-24T20:54:32.573376
MEAN_MOTION    = 14.79302684
ECCENTRICITY   = .0008047
INCLINATION    = 97.7190
RA_OF_ASC_NODE = 27.6929
ARG_OF_PERICENTER = 102.6863
MEAN_ANOMALY   = 70.0456

EPHEMERIS_TYPE = 0
CLASSIFICATION_TYPE = U
NORAD_CAT_ID   = 23343
ELEMENT_SET_NO = 999
REV_AT_EPOCH   = 67618
BSTAR          = .67733E-4
MEAN_MOTION_DOT = .455E-5
MEAN_MOTION_DDOT = 0

CCSDS_OMM_VERS = 2.0
CREATION_DATE  = 
ORIGINATOR     = 

OBJECT_NAME    = SL-16 R/B
OBJECT_ID      = 1994-077B
CENTER_NAME    = EARTH
REF_FRAME      = TEME
TIME_SYSTEM    = UTC
MEAN_ELEMENT_THEORY = SGP/SGP4

EPOCH          = 2025-12-24T19:00:32.896224
MEAN_MOTION    = 14.15552330
ECCENTRICITY   = .0005049
INCLINATION    = 70.9819
RA_OF_ASC_NODE = 150.0587
ARG_OF_PERICENTER = 275.4125
MEAN_ANOMALY   = 84.6422

EPHEMERIS_TYPE = 0
CLASSIFICATION_TYPE = U
NORAD_CAT_ID   = 23405
ELEMENT_SET_NO = 999
REV_AT_EPOCH   = 60563
BSTAR          = -.69292E-4
MEAN_MOTION_DOT = -.184E-5
MEAN_MOTION_DDOT = 0

CCSDS_OMM_VERS = 2.0
CREATION_DATE  = 
ORIGINATOR     = 

OBJECT_NAME    = ARIANE 40+ R/B
OBJECT_ID      = 1995-021B
CENTER_NAME    = EARTH
REF_FRAME      = TEME
TIME_SYSTEM    = UTC
MEAN_ELEMENT_THEORY = SGP/SGP4

EPOCH          = 2025-12-24T20:09:44.882784
MEAN_MOTION    = 14.39704298
ECCENTRICITY   = .0006846
INCLINATION    = 98.4635
RA_OF_ASC_NODE = 66.2823
ARG_OF_PERICENTER = 16.2115
MEAN_ANOMALY   = 100.2467

EPHEMERIS_TYPE = 0
CLASSIFICATION_TYPE = U
NORAD_CAT_ID   = 23561
ELEMENT_SET_NO = 999
REV_AT_EPOCH   = 60847
BSTAR          = .11109E-3
MEAN_MOTION_DOT = .304E-5
MEAN_MOTION_DDOT = 0

CCSDS_OMM_VERS = 2.0
CREATION_DATE  = 
ORIGINATOR     = 

OBJECT_NAME    = SL-16 R/B
OBJECT_ID      = 1995-058B
CENTER_NAME    = EARTH
REF_FRAME      = TEME
TIME_SYSTEM    = UTC
MEAN_ELEMENT_THEORY = SGP/SGP4

EPOCH          = 2025-12-24T15:41:45.827232
MEAN_MOTION    = 14.15481586
ECCENTRICITY   = .0014679
INCLINATION    = 71.0217
RA_OF_ASC_NODE = 337.7900
ARG_OF_PERICENTER = 239.6726
MEAN_ANOMALY   = 120.2946

EPHEMERIS_TYPE = 0
CLASSIFICATION_TYPE = U
NORAD_CAT_ID   = 23705
ELEMENT_SET_NO = 999
REV_AT_EPOCH   = 55723
BSTAR          = -.70301E-4
MEAN_MOTION_DOT = -.185E-5
MEAN_MOTION_DDOT = 0

CCSDS_OMM_VERS = 2.0
CREATION_DATE  = 
ORIGINATOR     = 

OBJECT_NAME    = SL-16 R/B
OBJECT_ID      = 1996-051B
CENTER_NAME    = EARTH
REF_FRAME      = TEME
TIME_SYSTEM    = UTC
MEAN_ELEMENT_THEORY = SGP/SGP4

EPOCH          = 2025-12-24T16:04:50.147040
MEAN_MOTION    = 14.12397530
ECCENTRICITY   = .0019487
INCLINATION    = 70.7595
RA_OF_ASC_NODE = 334.0304
ARG_OF_PERICENTER = 246.7431
MEAN_ANOMALY   = 113.1637

EPHEMERIS_TYPE = 0
CLASSIFICATION_TYPE = U
NORAD_CAT_ID   = 24298
ELEMENT_SET_NO = 999
REV_AT_EPOCH   = 51105
BSTAR          = .15779E-4
MEAN_MOTION_DOT = -.2E-6
MEAN_MOTION_DDOT = 0

CCSDS_OMM_VERS = 2.0
CREATION_DATE  = 
ORIGINATOR     = 

OBJECT_NAME    = ORBVIEW 2 (SEASTAR)
OBJECT_ID      = 1997-037A
CENTER_NAME    = EARTH
REF_FRAME      = TEME
TIME_SYSTEM    = UTC
MEAN_ELEMENT_THEORY = SGP/SGP4

EPOCH          = 2025-12-24T16:41:35.945088
MEAN_MOTION    = 14.35425161
ECCENTRICITY   = .0001238
INCLINATION    = 98.8462
RA_OF_ASC_NODE = 156.0713
ARG_OF_PERICENTER = 289.2201
MEAN_ANOMALY   = 70.8849

EPHEMERIS_TYPE = 0
CLASSIFICATION_TYPE = U
NORAD_CAT_ID   = 24883
ELEMENT_SET_NO = 999
REV_AT_EPOCH   = 49771
BSTAR          = .11392E-3
MEAN_MOTION_DOT = .281E-5
MEAN_MOTION_DDOT = 0

